[{"OBJECT_NAME":"STARLINK-33992","OBJECT_ID":"2025-102E","EPOCH":"2026-03-09T12:46:45.300000","MEAN_MOTION":14.98329614,"ECCENTRICITY":0.00036172,"INCLINATION":70.0008,"RA_OF_ASC_NODE":115.0553,"ARG_OF_PERICENTER":268.2741,"MEAN_ANOMALY":91.8004,"EPHEMERIS_TYPE":0,"CLASSIFICATION_TYPE":"U","NORAD_CAT_ID":64026,"ELEMENT_SET_NO":999,"REV_AT_EPOCH":4601,"BSTAR":0.0003249454,"MEAN_MOTION_DOT":3.786e-5,"MEAN_MOTION_DDOT":0},{"OBJECT_NAME":"ATLAS 28E DEB","OBJECT_ID":"1990-031F","EPOCH":"2026-03-09T23:20:22.354944","MEAN_MOTION":14.8907054,"ECCENTRICITY":0.00492653,"INCLINATION":89.9045,"RA_OF_ASC_NODE":245.9973,"ARG_OF_PERICENTER":224.0293,"MEAN_ANOMALY":135.7008,"EPHEMERIS_TYPE":0,"CLASSIFICATION_TYPE":"U","NORAD_CAT_ID":20565,"ELEMENT_SET_NO":999,"REV_AT_EPOCH":36885,"BSTAR":0.00032450895,"MEAN_MOTION_DOT":3.143e-5,"MEAN_MOTION_DDOT":0}]
